NORAD_CAT_ID,OBJECT_NAME,OBJECT_TYPE,EPOCH,MEAN_MOTION,ECCENTRICITY,INCLINATION,RA_OF_ASC_NODE,ARG_OF_PERICENTER,MEAN_ANOMALY,BSTAR,MEAN_MOTION_DOT,MEAN_MOTION_DDOT,TLE_LINE0,TLE_LINE1,TLE_LINE2,SEMIMAJOR_AXIS,PERIOD,APOGEE,PERIGEE,DECAYED
54051.0,STARLINK-5195,PAYLOAD,2023-03-03 13:00:30,15.08854161,0.000117,53.2159,252.0929,91.345,268.7676,0.00032921,4.957e-05,0.0,0 STARLINK-5195,1 54051U 22136A   23062.54202426  .00004957  00000-0  32921-3 0  9992,2 54051  53.2159 252.0929 0001170  91.3450 268.7676 15.08854161 20937,6917.837,95.437,540.511,538.893,0.0
54051.0,STARLINK-5195,PAYLOAD,2023-03-03 19:22:03,15.08862314,0.0001661,53.2158,250.9034,88.5405,271.5777,0.00057721,8.916e-05,0.0,0 STARLINK-5195,1 54051U 22136A   23062.80698069  .00008916  00000-0  57721-3 0  9997,2 54051  53.2158 250.9034 0001661  88.5405 271.5777 15.08862314 20497,6917.812,95.436,540.826,538.528,0.0
54051.0,STARLINK-5195,PAYLOAD,2023-03-04 04:54:22,15.08841128,0.0002153,53.2163,249.1188,68.9545,291.1678,-1.8938e-05,-5.9e-06,0.0,0 STARLINK-5195,1 54051U 22136A   23063.20442414 -.00000590  00000-0 -18938-4 0  9993,2 54051  53.2163 249.1188 0002153  68.9545 291.1678 15.08841128 21036,6917.877,95.437,541.231,538.253,0.0
54051.0,STARLINK-5195,PAYLOAD,2023-03-04 12:51:17,15.08839835,0.0001371,53.2162,247.6335,85.7784,274.3365,0.00022872,3.354e-05,0.0,0 STARLINK-5195,1 54051U 22136A   23063.53562487  .00003354  00000-0  22872-3 0  9992,2 54051  53.2162 247.6335 0001371  85.7784 274.3365 15.08839835 20605,6917.881,95.438,540.694,538.797,0.0
54051.0,STARLINK-5195,PAYLOAD,2023-03-04 17:37:27,15.08837317,0.0001473,53.2163,246.7415,86.4322,273.6838,0.00032192,4.839e-05,0.0,0 STARLINK-5195,1 54051U 22136A   23063.73434540  .00004839  00000-0  32192-3 0  9997,2 54051  53.2163 246.7415 0001473  86.4322 273.6838 15.08837317 20637,6917.889,95.438,540.773,538.735,0.0
54051.0,STARLINK-5195,PAYLOAD,2023-03-05 04:45:09,15.08838549,0.0001289,53.2164,244.6602,92.7314,267.3826,0.00039699,6.036e-05,0.0,0 STARLINK-5195,1 54051U 22136A   23064.19802731  .00006036  00000-0  39699-3 0  9999,2 54051  53.2164 244.6602 0001289  92.7314 267.3826 15.08838549 20702,6917.885,95.438,540.642,538.858,0.0
54051.0,STARLINK-5195,PAYLOAD,2023-03-05 19:03:37,15.08843023,0.0001221,53.2158,241.9849,98.0853,262.0278,0.00038713,5.879e-05,0.0,0 STARLINK-5195,1 54051U 22136A   23064.79418751  .00005879  00000-0  38713-3 0  9990,2 54051  53.2158 241.9849 0001221  98.0853 262.0278 15.08843023 21270,6917.871,95.437,540.581,538.891,0.0
54051.0,STARLINK-5195,PAYLOAD,2023-03-06 20:29:47,15.08847936,0.0001042,53.2143,237.2256,95.6848,264.4263,0.00031365,4.709e-05,0.0,0 STARLINK-5195,1 54051U 22136A   23065.85402455  .00004709  00000-0  31365-3 0  9999,2 54051  53.2143 237.2256 0001042  95.6848 264.4263 15.08847936 20953,6917.856,95.437,540.442,539.0,0.0
54051.0,STARLINK-5195,PAYLOAD,2023-03-07 04:26:43,15.08835195,0.0001534,53.2147,235.7387,87.0572,273.0595,7.358e-06,-1.71e-06,0.0,0 STARLINK-5195,1 54051U 22136A   23066.18523074 -.00000171  00000-0  73580-5 0  9994,2 54051  53.2147 235.7387 0001534  87.0572 273.0595 15.08835195 21487,6917.895,95.438,540.821,538.699,0.0
54051.0,STARLINK-5195,PAYLOAD,2023-03-07 20:20:34,15.08861,0.0001165,53.2148,232.7643,84.5086,275.6039,0.0018008,0.00028504,0.0,0 STARLINK-5195,1 54051U 22136A   23066.84762444  .00028504  00000-0  18008-2 0  9993,2 54051  53.2148 232.7643 0001165  84.5086 275.6039 15.08861000 21588,6917.816,95.436,540.487,538.875,0.0
54051.0,STARLINK-5195,PAYLOAD,2023-03-08 04:17:30,15.08826025,0.0001194,53.2149,231.2774,100.4212,259.6915,-0.0001276,-2.317e-05,0.0,0 STARLINK-5195,1 54051U 22136A   23067.17882931 -.00002317  00000-0 -12760-3 0  9990,2 54051  53.2149 231.2774 0001194 100.4212 259.6915 15.08826025 21638,6917.923,95.438,540.614,538.962,0.0
54051.0,STARLINK-5195,PAYLOAD,2023-03-08 17:00:35,15.0885472,0.0001206,53.2152,228.898,104.1659,255.9467,0.0024095,0.00038283,0.0,0 STARLINK-5195,1 54051U 22136A   23067.70874954  .00038283  00000-0  24095-2 0  9997,2 54051  53.2152 228.8980 0001206 104.1659 255.9467 15.08854720 21716,6917.835,95.437,540.535,538.866,0.0
54051.0,STARLINK-5195,PAYLOAD,2023-03-08 20:11:22,15.08856788,0.0001159,53.2152,228.3036,103.1713,256.9408,0.002951,0.00047012,0.0,0 STARLINK-5195,1 54051U 22136A   23067.84123071  .00047012  00000-0  29510-2 0  9996,2 54051  53.2152 228.3036 0001159 103.1713 256.9408 15.08856788 21251,6917.829,95.436,540.496,538.892,0.0
54051.0,STARLINK-5195,PAYLOAD,2023-03-09 04:08:18,15.08838195,0.0001179,53.2153,226.8162,89.7613,270.3515,0.00067149,0.00010414,0.0,0 STARLINK-5195,1 54051U 22136A   23068.17243240  .00010414  00000-0  67149-3 0  9991,2 54051  53.2153 226.8162 0001179  89.7613 270.3515 15.08838195 21784,6917.886,95.438,540.567,538.935,0.0
54051.0,STARLINK-5195,PAYLOAD,2023-03-09 18:26:45,15.08880145,0.0001161,53.2159,224.1401,79.5159,280.5964,0.0030612,0.00048822,0.0,0 STARLINK-5195,1 54051U 22136A   23068.76858783  .00048822  00000-0  30612-2 0  9998,2 54051  53.2159 224.1401 0001161  79.5159 280.5964 15.08880145 21873,6917.758,95.435,540.426,538.82,0.0
54051.0,STARLINK-5195,PAYLOAD,2023-03-09 21:37:32,15.08887144,0.0001259,53.2162,223.5455,78.0857,282.0276,0.0028416,0.00045285,0.0,0 STARLINK-5195,1 54051U 22136A   23068.90106482  .00045285  00000-0  28416-2 0  9995,2 54051  53.2162 223.5455 0001259  78.0857 282.0276 15.08887144 21415,6917.736,95.435,540.472,538.73,0.0
54051.0,STARLINK-5195,PAYLOAD,2023-03-10 00:48:18,15.08830476,0.0001777,53.216,222.9506,69.2768,290.8415,-0.00095028,-0.00015376,0.0,0 STARLINK-5195,1 54051U 22136A   23069.03355104 -.00015376  00000-0 -95028-3 0  9991,2 54051  53.2160 222.9506 0001777  69.2768 290.8415 15.08830476 21914,6917.91,95.438,541.004,538.545,0.0
54051.0,STARLINK-5195,PAYLOAD,2023-03-10 10:20:37,15.0885949,0.0001291,53.2162,221.1667,88.5154,271.5986,0.0009451,0.00014793,0.0,0 STARLINK-5195,1 54051U 22136A   23069.43098501  .00014793  00000-0  94510-3 0  9995,2 54051  53.2162 221.1667 0001291  88.5154 271.5986 15.08859490 21971,6917.821,95.436,540.579,538.793,0.0
54051.0,STARLINK-5195,PAYLOAD,2023-03-10 16:42:09,15.08890999,0.0001614,53.2157,219.9762,101.5442,258.5731,0.0036655,0.00058616,0.0,0 STARLINK-5195,1 54051U 22136A   23069.69594200  .00058616  00000-0  36655-2 0  9997,2 54051  53.2157 219.9762 0001614 101.5442 258.5731 15.08890999 22019,6917.725,95.434,540.706,538.473,0.0
54051.0,STARLINK-5195,PAYLOAD,2023-03-11 10:11:24,15.0885941,0.0001398,53.2173,216.7072,314.109,45.9787,0.0028622,0.00045583,0.0,0 STARLINK-5195,1 54051U 22136A   23070.42459028  .00045583  00000-0  28622-2 0  9992,2 54051  53.2173 216.7072 0001398 314.1090  45.9787 15.08859410 22120,6917.821,95.436,540.653,538.719,0.0
54051.0,STARLINK-5195,PAYLOAD,2023-03-11 11:46:47,15.08855952,0.0001761,53.2174,216.4092,304.4372,55.6453,0.0023217,0.00036872,0.0,0 STARLINK-5195,1 54051U 22136A   23070.49083071  .00036872  00000-0  23217-2 0  9996,2 54051  53.2174 216.4092 0001761 304.4372  55.6453 15.08855952 21651,6917.832,95.437,540.915,538.478,0.0
54051.0,STARLINK-5195,PAYLOAD,2023-03-11 19:43:43,15.08858081,0.0001345,53.2174,214.9228,118.2229,241.8899,0.0023495,0.00037321,0.0,0 STARLINK-5195,1 54051U 22136A   23070.82202769  .00037321  00000-0  23495-2 0  9998,2 54051  53.2174 214.9228 0001345 118.2229 241.8899 15.08858081 22183,6917.825,95.436,540.621,538.76,0.0
54051.0,STARLINK-5195,PAYLOAD,2023-03-12 08:26:48,15.0884494,0.0001426,53.2169,212.5447,105.5222,254.5927,0.001397,0.00022018,0.0,0 STARLINK-5195,1 54051U 22136A   23071.35195474  .00022018  00000-0  13970-2 0  9995,2 54051  53.2169 212.5447 0001426 105.5222 254.5927 15.08844940 22267,6917.865,95.437,540.717,538.744,0.0
54051.0,STARLINK-5195,PAYLOAD,2023-03-12 10:02:12,15.08840226,0.0001359,53.2175,212.2463,106.9722,253.1419,0.0011797,0.00018537,0.0,0 STARLINK-5195,1 54051U 22136A   23071.41819599  .00018537  00000-0  11797-2 0  9999,2 54051  53.2175 212.2463 0001359 106.9722 253.1419 15.08840226 21795,6917.88,95.438,540.685,538.805,0.0
54051.0,STARLINK-5195,PAYLOAD,2023-03-12 13:12:58,15.08832751,0.0001374,53.2177,211.6518,108.5681,251.5461,0.00081762,0.00012746,0.0,0 STARLINK-5195,1 54051U 22136A   23071.55067751  .00012746  00000-0  81762-3 0  9995,2 54051  53.2177 211.6518 0001374 108.5681 251.5461 15.08832751 22299,6917.903,95.438,540.718,538.817,0.0
54051.0,STARLINK-5195,PAYLOAD,2023-03-13 09:52:59,15.08832971,0.0001521,53.2176,207.7869,101.5114,258.6049,0.00033217,5.001e-05,0.0,0 STARLINK-5195,1 54051U 22136A   23072.41180427  .00005001  00000-0  33217-3 0  9995,2 54051  53.2176 207.7869 0001521 101.5114 258.6049 15.08832971 22420,6917.902,95.438,540.819,538.715,0.0
54051.0,STARLINK-5195,PAYLOAD,2023-03-14 08:08:23,15.08848352,0.0001395,53.2177,203.6239,99.8772,260.2378,0.00047418,7.268e-05,0.0,0 STARLINK-5195,1 54051U 22136A   23073.33916246  .00007268  00000-0  47418-3 0  9998,2 54051  53.2177 203.6239 0001395  99.8772 260.2378 15.08848352 22081,6917.855,95.437,540.685,538.755,0.0
54051.0,STARLINK-5195,PAYLOAD,2023-03-14 20:51:28,15.08861554,0.0001136,53.2143,201.2427,84.8172,275.295,0.00064486,9.996e-05,0.0,0 STARLINK-5195,1 54051U 22136A   23073.86907653  .00009996  00000-0  64486-3 0  9992,2 54051  53.2143 201.2427 0001136  84.8172 275.2950 15.08861554 22641,6917.815,95.436,540.465,538.894,0.0
54051.0,STARLINK-5195,PAYLOAD,2023-03-15 12:45:19,15.08842814,0.0001383,53.2153,198.2708,44.0863,316.024,0.00010706,1.416e-05,0.0,0 STARLINK-5195,1 54051U 22136A   23074.53148051  .00001416  00000-0  10706-3 0  9991,2 54051  53.2153 198.2708 0001383  44.0863 316.0240 15.08842814 22743,6917.872,95.437,540.694,538.78,0.0
54051.0,STARLINK-5195,PAYLOAD,2023-03-16 18:57:39,15.0884368,0.0001121,53.2161,192.6249,63.6327,296.478,0.00049923,7.667e-05,0.0,0 STARLINK-5195,1 54051U 22136A   23075.79004575  .00007667  00000-0  49923-3 0  9999,2 54051  53.2161 192.6249 0001121  63.6327 296.4780 15.08843680 22935,6917.869,95.437,540.51,538.959,0.0
